NORAD_CAT_ID,OBJECT_NAME,OBJECT_TYPE,EPOCH,MEAN_MOTION,ECCENTRICITY,INCLINATION,RA_OF_ASC_NODE,ARG_OF_PERICENTER,MEAN_ANOMALY,BSTAR,MEAN_MOTION_DOT,MEAN_MOTION_DDOT,TLE_LINE0,TLE_LINE1,TLE_LINE2,SEMIMAJOR_AXIS,PERIOD,APOGEE,PERIGEE,DECAYED
55752.0,STARLINK-5613,PAYLOAD,2024-03-28 19:55:34,14.98340663,0.000314,69.9994,236.6464,270.436,89.644,0.0003141,3.658e-05,0.0,0 STARLINK-5613,1 55752U 23028M   24088.83025818  .00003658  00000-0  31410-3 0  9990,2 55752  69.9994 236.6464 0003140 270.4360  89.6440 14.98340663 59563,6950.16,96.106,574.207,569.843,0.0
55752.0,STARLINK-5613,PAYLOAD,2024-03-29 11:56:55,14.98336215,0.0002685,69.9989,234.9635,270.6937,89.3915,0.00015861,1.8e-05,0.0,0 STARLINK-5613,1 55752U 23028M   24089.49786319  .00001800  00000-0  15861-3 0  9992,2 55752  69.9989 234.9635 0002685 270.6937  89.3915 14.98336215 59666,6950.174,96.107,573.905,570.173,0.0
55752.0,STARLINK-5613,PAYLOAD,2024-03-29 16:45:18,14.98359889,0.0002645,69.9998,234.4587,271.4971,88.5885,-0.00011016,-1.408e-05,0.0,0 STARLINK-5613,1 55752U 23028M   24089.69813377 -.00001408  00000-0 -11016-3 0  9993,2 55752  69.9998 234.4587 0002645 271.4971  88.5885 14.98359889 59692,6950.1,96.105,573.804,570.127,0.0
55752.0,STARLINK-5613,PAYLOAD,2024-03-30 11:58:56,14.98340798,0.0003244,69.9988,232.4397,269.5111,90.5676,-0.00014809,-1.86e-05,0.0,0 STARLINK-5613,1 55752U 23028M   24090.49926355 -.00001860  00000-0 -14809-3 0  9999,2 55752  69.9988 232.4397 0003244 269.5111  90.5676 14.98340798 59812,6950.159,96.106,574.279,569.77,0.0
55752.0,STARLINK-5613,PAYLOAD,2024-03-30 13:35:04,14.98340716,0.0003338,69.999,232.2714,270.1787,89.8989,-0.00014492,-1.822e-05,0.0,0 STARLINK-5613,1 55752U 23028M   24090.56602333 -.00001822  00000-0 -14492-3 0  9990,2 55752  69.9990 232.2714 0003338 270.1787  89.8989 14.98340716 59826,6950.16,96.106,574.345,569.705,0.0
55752.0,STARLINK-5613,PAYLOAD,2024-03-30 19:59:36,14.98341145,0.0003343,69.9989,231.5972,273.1616,86.9161,-0.0001466,-1.842e-05,0.0,0 STARLINK-5613,1 55752U 23028M   24090.83306108 -.00001842  00000-0 -14660-3 0  9990,2 55752  69.9989 231.5972 0003343 273.1616  86.9161 14.98341145 59863,6950.158,96.106,574.347,569.7,0.0
55752.0,STARLINK-5613,PAYLOAD,2024-03-31 12:00:56,14.98336973,0.0003274,69.9997,229.9148,270.1304,89.948,-5.2603e-05,-7.21e-06,0.0,0 STARLINK-5613,1 55752U 23028M   24091.50065794 -.00000721  00000-0 -52603-4 0  9993,2 55752  69.9997 229.9148 0003274 270.1304  89.9480 14.98336973 59963,6950.171,96.107,574.312,569.761,0.0
55752.0,STARLINK-5613,PAYLOAD,2024-03-31 13:37:04,14.98337208,0.0003189,69.9999,229.7466,267.9319,92.1475,-4.4989e-05,-6.3e-06,0.0,0 STARLINK-5613,1 55752U 23028M   24091.56741723 -.00000630  00000-0 -44989-4 0  9999,2 55752  69.9999 229.7466 0003189 267.9319  92.1475 14.98337208 59974,6950.171,96.107,574.252,569.819,0.0
55752.0,STARLINK-5613,PAYLOAD,2024-03-31 18:25:28,14.98342852,0.000308,70.0003,229.2429,265.8352,94.2456,1.7968e-05,1.21e-06,0.0,0 STARLINK-5613,1 55752U 23028M   24091.76769055  .00000121  00000-0  17968-4 0  9999,2 55752  70.0003 229.2429 0003080 265.8352  94.2456 14.98342852 60000,6950.153,96.106,574.159,569.878,0.0
55752.0,STARLINK-5613,PAYLOAD,2024-04-01 12:02:58,14.98321588,0.0002382,70.0013,227.39,261.7539,98.335,3.1622e-05,2.84e-06,0.0,0 STARLINK-5613,1 55752U 23028M   24092.50206370  .00000284  00000-0  31622-4 0  9991,2 55752  70.0013 227.3900 0002382 261.7539  98.3350 14.98321588 60113,6950.219,96.108,573.739,570.428,0.0
55752.0,STARLINK-5613,PAYLOAD,2024-04-01 13:39:06,14.98318112,0.0002276,70.0022,227.2223,259.0853,101.005,5.5478e-05,5.69e-06,0.0,0 STARLINK-5613,1 55752U 23028M   24092.56882544  .00000569  00000-0  55478-4 0  9991,2 55752  70.0022 227.2223 0002276 259.0853 101.0050 14.98318112 60120,6950.23,96.108,573.677,570.513,0.0
55752.0,STARLINK-5613,PAYLOAD,2024-04-02 02:28:10,14.98331475,0.0002932,70.0014,225.8752,269.0452,91.0371,5.4659e-05,5.59e-06,0.0,0 STARLINK-5613,1 55752U 23028M   24093.10289828  .00000559  00000-0  54659-4 0  9997,2 55752  70.0014 225.8752 0002932 269.0452  91.0371 14.98331475 60207,6950.188,96.107,574.091,570.016,0.0
55752.0,STARLINK-5613,PAYLOAD,2024-04-02 12:04:58,14.98340618,0.0002945,70.0006,224.8648,270.1008,89.9813,7.9576e-05,8.57e-06,0.0,0 STARLINK-5613,1 55752U 23028M   24093.50344999  .00000857  00000-0  79576-4 0  9998,2 55752  70.0006 224.8648 0002945 270.1008  89.9813 14.98340618 60267,6950.16,96.106,574.072,569.978,0.0
55752.0,STARLINK-5613,PAYLOAD,2024-04-02 15:17:13,14.98342235,0.0002676,70.0007,224.5282,265.269,94.8163,0.00010775,1.193e-05,0.0,0 STARLINK-5613,1 55752U 23028M   24093.63696740  .00001193  00000-0  10775-3 0  9995,2 55752  70.0007 224.5282 0002676 265.2690  94.8163 14.98342235 60284,6950.155,96.106,573.88,570.16,0.0
55752.0,STARLINK-5613,PAYLOAD,2024-04-02 18:29:29,14.98344849,0.0002908,70.0008,224.1916,270.3295,89.7531,8.4526e-05,9.16e-06,0.0,0 STARLINK-5613,1 55752U 23028M   24093.77048520  .00000916  00000-0  84526-4 0  9995,2 55752  70.0008 224.1916 0002908 270.3295  89.7531 14.98344849 60309,6950.147,96.106,574.033,569.991,0.0
55752.0,STARLINK-5613,PAYLOAD,2024-04-03 10:30:51,14.9831928,0.0002852,70.0011,222.5091,270.8312,89.2521,2.8628e-05,2.49e-06,0.0,0 STARLINK-5613,1 55752U 23028M   24094.43810162  .00000249  00000-0  28628-4 0  9998,2 55752  70.0011 222.5091 0002852 270.8312  89.2521 14.98319280 60408,6950.226,96.108,574.073,570.109,0.0
55752.0,STARLINK-5613,PAYLOAD,2024-04-03 15:19:15,14.98325082,0.0002832,70.0007,222.0035,267.8341,92.2494,2.4673e-05,2.01e-06,0.0,0 STARLINK-5613,1 55752U 23028M   24094.63837872  .00000201  00000-0  24673-4 0  9991,2 55752  70.0007 222.0035 0002832 267.8341  92.2494 14.98325082 60435,6950.208,96.107,574.041,570.105,0.0
55752.0,STARLINK-5613,PAYLOAD,2024-04-03 18:31:32,14.98323972,0.0002863,70.0008,221.6672,266.7699,93.3133,2.9283e-05,2.56e-06,0.0,0 STARLINK-5613,1 55752U 23028M   24094.77189964  .00000256  00000-0  29283-4 0  9990,2 55752  70.0008 221.6672 0002863 266.7699  93.3133 14.98323972 60456,6950.212,96.107,574.066,570.087,0.0
55752.0,STARLINK-5613,PAYLOAD,2024-04-04 12:09:00,14.98332486,0.0002961,70.0009,219.8158,268.2025,91.8794,-9.329e-05,-1.206e-05,0.0,0 STARLINK-5613,1 55752U 23028M   24095.50625741 -.00001206  00000-0 -93290-4 0  9997,2 55752  70.0009 219.8158 0002961 268.2025  91.8794 14.98332486 60562,6950.185,96.107,574.108,569.992,0.0
55752.0,STARLINK-5613,PAYLOAD,2024-04-04 15:21:15,14.9836996,0.0002562,70.0008,219.4801,255.5324,104.5551,-0.00066286,-8.001e-05,0.0,0 STARLINK-5613,1 55752U 23028M   24095.63976805 -.00008001  00000-0 -66286-3 0  9995,2 55752  70.0008 219.4801 0002562 255.5324 104.5551 14.98369960 60582,6950.069,96.104,573.715,570.154,0.0
55752.0,STARLINK-5613,PAYLOAD,2024-04-04 18:33:32,14.98335612,0.0002946,70.0007,219.1427,266.9945,93.0877,-5.7645e-05,-7.81e-06,0.0,0 STARLINK-5613,1 55752U 23028M   24095.77329363 -.00000781  00000-0 -57645-4 0  9998,2 55752  70.0007 219.1427 0002946 266.9945  93.0877 14.98335612 60606,6950.176,96.107,574.088,569.993,0.0
55752.0,STARLINK-5613,PAYLOAD,2024-04-05 12:11:01,14.98325562,0.0003006,70.0007,217.2916,266.5811,93.5005,0.00017823,2.034e-05,0.0,0 STARLINK-5613,1 55752U 23028M   24096.50765276  .00002034  00000-0  17823-3 0  9991,2 55752  70.0007 217.2916 0003006 266.5811  93.5005 14.98325562 60717,6950.207,96.107,574.161,569.982,0.0
55752.0,STARLINK-5613,PAYLOAD,2024-04-05 13:47:09,14.98337816,0.000302,70.0005,217.1228,269.3357,90.7456,-6.6225e-05,-8.83e-06,0.0,0 STARLINK-5613,1 55752U 23028M   24096.57441062 -.00000883  00000-0 -66225-4 0  9995,2 55752  70.0005 217.1228 0003020 269.3357  90.7456 14.98337816 60727,6950.169,96.106,574.133,569.935,0.0
55752.0,STARLINK-5613,PAYLOAD,2024-04-05 18:35:33,14.98333913,0.0002973,70.0007,216.6185,265.4133,94.6687,0.00011805,1.316e-05,0.0,0 STARLINK-5613,1 55752U 23028M   24096.77468839  .00001316  00000-0  11805-3 0  9991,2 55752  70.0007 216.6185 0002973 265.4133  94.6687 14.98333913 60756,6950.181,96.107,574.112,569.98,0.0
55752.0,STARLINK-5613,PAYLOAD,2024-04-06 13:49:10,14.98329197,0.0002937,70.0018,214.5989,272.0417,88.0405,8.9839e-06,1.4e-07,0.0,0 STARLINK-5613,1 55752U 23028M   24097.57581485  .00000014  00000-0  89839-5 0  9991,2 55752  70.0018 214.5989 0002937 272.0417  88.0405 14.98329197 60873,6950.195,96.107,574.102,570.019,0.0
55752.0,STARLINK-5613,PAYLOAD,2024-04-07 13:51:11,14.98324255,0.0002634,70.0023,212.0742,259.0717,101.0146,-4.8238e-05,-6.68e-06,0.0,0 STARLINK-5613,1 55752U 23028M   24098.57722101 -.00000668  00000-0 -48238-4 0  9998,2 55752  70.0023 212.0742 0002634 259.0717 101.0146 14.98324255 61027,6950.211,96.107,573.906,570.245,0.0
55752.0,STARLINK-5613,PAYLOAD,2024-04-08 09:04:48,14.98329006,0.0002903,70.0021,210.0545,269.7427,90.3399,5.5017e-05,5.64e-06,0.0,0 STARLINK-5613,1 55752U 23028M   24099.37833629  .00000564  00000-0  55017-4 0  9991,2 55752  70.0021 210.0545 0002903 269.7427  90.3399 14.98329006 61141,6950.196,96.107,574.079,570.043,0.0
55752.0,STARLINK-5613,PAYLOAD,2024-04-08 13:53:12,14.98333395,0.0002954,70.0011,209.5491,269.4539,90.6281,8.1736e-05,8.82e-06,0.0,0 STARLINK-5613,1 55752U 23028M   24099.57861273  .00000882  00000-0  81736-4 0  9999,2 55752  70.0011 209.5491 0002954 269.4539  90.6281 14.98333395 61172,6950.182,96.107,574.1,569.994,0.0
55752.0,STARLINK-5613,PAYLOAD,2024-04-09 09:06:49,14.98329218,0.0002961,69.9998,207.5282,269.9202,90.1618,0.00010049,1.106e-05,0.0,0 STARLINK-5613,1 55752U 23028M   24100.37973409  .00001106  00000-0  10049-3 0  9993,2 55752  69.9998 207.5282 0002961 269.9202  90.1618 14.98329218 61290,6950.195,96.107,574.118,570.002,0.0
55752.0,STARLINK-5613,PAYLOAD,2024-04-09 13:55:13,14.98331129,0.0003006,70.0002,207.0234,269.897,90.1845,8.5909e-05,9.32e-06,0.0,0 STARLINK-5613,1 55752U 23028M   24100.58001353  .00000932  00000-0  85909-4 0  9990,2 55752  70.0002 207.0234 0003006 269.8970  90.1845 14.98331129 61323,6950.189,96.107,574.144,569.965,0.0
